ORBCOMM FM20            
1 25416U 98046D   25150.60122145  .00000764  00000+0  30161-3 0  9999
2 25416  44.9941 264.5521 0002426 210.9614 149.1091 14.37182655401735
ORBCOMM FM16            
1 25417U 98046E   25150.89569990  .00001120  00000+0  40632-3 0  9995
2 25417  44.9937 254.9552 0006354 214.9687 145.0744 14.38873798401765
ORBCOMM FM15            
1 25418U 98046F   25150.58976301  .00001018  00000+0  37622-3 0  9991
2 25418  44.9969 261.4999 0005883 213.0747 146.9734 14.38518827401715
ORBCOMM FM14            
1 25419U 98046G   25150.75082251  .00001058  00000+0  38636-3 0  9993
2 25419  44.9958 259.0228 0004750 210.9083 149.1487 14.38875917401708
ORBCOMM FM13            
1 25420U 98046H   25150.64140572  .00000886  00000+0  33928-3 0  9991
2 25420  44.9976 267.3487 0006578 196.1649 163.8990 14.37640034400713
ORBCOMM FM21            
1 25475U 98053A   25150.85236440  .00000917  00000+0  35177-3 0  9995
2 25475  45.0098 351.5839 0001733 127.2547 232.8459 14.37319886394758
ORBCOMM FM22            
1 25476U 98053B   25150.83240703  .00001029  00000+0  38113-3 0  9999
2 25476  45.0089 346.6704 0003661 134.0814 226.0336 14.38348989394778
ORBCOMM FM23            
1 25477U 98053C   25150.85527762  .00000939  00000+0  35769-3 0  9998
2 25477  45.0097 353.7174 0002740 126.2698 233.8403 14.37497871394908
